COSMOS 2425 (716)       
1 29670U 06062A   21212.13105094  .00000035  00000-0  00000-0 0  9997
2 29670  64.8318 253.9736 0024018 339.9609 201.3679  2.13116187113604
COSMOS 2433 (720)       
1 32275U 07052A   21212.69117110 -.00000056  00000-0  00000-0 0  9999
2 32275  66.0688  15.3161 0001712 180.8707 241.5977  2.13104149107136
COSMOS 2432 (719)       
1 32276U 07052B   21213.22685991 -.00000054  00000-0  00000+0 0  9994
2 32276  66.0831  15.3931 0008245 340.6637  81.9498  2.13103404107146
COSMOS 2434 (721)       
1 32393U 07065A   21212.36128175  .00000041  00000-0  00000-0 0  9994
2 32393  64.4493 252.4038 0001345 146.6608 271.2558  2.13103095105831
COSMOS 2436 (723)       
1 32395U 07065C   21213.48085553  .00000056  00000-0  00000+0 0  9997
2 32395  64.4581 252.4212 0013927 351.8839 341.0180  2.13102963105784
COSMOS 2456 (730)       
1 36111U 09070A   21213.40171093 -.00000025  00000-0  00000+0 0  9999
2 36111  64.2828 132.0409 0004787 312.2606 353.7960  2.13099345 90513
COSMOS 2457 (733)       
1 36112U 09070B   21213.12079653 -.00000024  00000-0  00000+0 0  9997
2 36112  64.2672 131.9349 0004376 177.9603  37.3326  2.13101582 90517
COSMOS 2459 (731)       
1 36400U 10007A   21212.93108598 -.00000056  00000-0  00000+0 0  9993
2 36400  65.9658  14.2262 0025197 351.9802 112.7475  2.13108508 88857
COSMOS 2461 (735)       
1 36401U 10007B   21212.92888924 -.00000056  00000-0  00000+0 0  9991
2 36401  65.9598  14.1895 0019814  14.2548  88.4706  2.13103636 88861
COSMOS 2460 (732)       
1 36402U 10007C   21212.63459469 -.00000057  00000-0  00000-0 0  9990
2 36402  65.9465  14.1559 0002607 103.1125  79.0803  2.13106464 88858
COSMOS 2464 (736)       
1 37139U 10041C   21213.53178257  .00000058  00000-0  00000+0 0  9998
2 37139  64.0489 251.5989 0026439   6.4778  89.9896  2.13100718 84937
COSMOS 2471 (701K)      
1 37372U 11009A   21210.90107734 -.00000063  00000-0  00000+0 0  9999
2 37372  65.9440  14.1461 0014978 225.2483 209.2939  2.13060954 81096
COSMOS 2476 (744)       
1 37867U 11064A   21212.43174334 -.00000016  00000-0  00000-0 0  9998
2 37867  64.5779 133.3045 0021276 239.6604 305.0069  2.13101900 75842
COSMOS 2477 (745)       
1 37868U 11064B   21212.69978956 -.00000018  00000-0  00000-0 0  9991
2 37868  64.5866 133.3565 0018619 240.4511 328.1502  2.13101801 75805
COSMOS 2475 (743)       
1 37869U 11064C   21213.33724685 -.00000023  00000-0  00000+0 0  9997
2 37869  64.5931 133.3382 0022871 259.2988  36.0758  2.13102135 75828
COSMOS 2485 (747)       
1 39155U 13019A   21212.83852267 -.00000019  00000-0  00000-0 0  9997
2 39155  64.7437 133.6489 0021698 235.1473 306.0522  2.13102032 64328
COSMOS 2492 (754)       
1 39620U 14012A   21212.57176728 -.00000058  00000-0  00000-0 0  9993
2 39620  65.8352  13.8851 0011124 332.2474  39.0666  2.13103104 57277
COSMOS 2500 (755)       
1 40001U 14032A   21212.34900840 -.00000059  00000-0  00000-0 0  9996
2 40001  65.7757  13.7775 0006308 180.2951 239.6666  2.13102408 55488
COSMOS 2501 (702K)      
1 40315U 14075A   21213.44800024  .00000055  00000-0  00000+0 0  9990
2 40315  63.7598 252.3935 0018677 211.8691 137.7402  2.13101421 51903
COSMOS 2514 (751)       
1 41330U 16008A   21212.96854889 -.00000058  00000-0  00000+0 0  9994
2 41330  65.5777  13.5280 0009442 198.0213 160.4442  2.13102841 42652
COSMOS 2516 (753)       
1 41554U 16032A   21212.77476206  .00000045  00000-0  00000-0 0  9997
2 41554  63.9861 252.6025 0015603 220.3678 245.6248  2.13107222 40262
COSMOS 2522 (752)       
1 42939U 17055A   21213.31877891  .00000053  00000-0  00000+0 0  9995
2 42939  64.2193 252.8848 0009602 243.6236 141.9217  2.13101980 30030
COSMOS 2527 (756)       
1 43508U 18053A   21212.49487095 -.00000016  00000-0  00000-0 0  9999
2 43508  64.9079 133.5940 0008202 237.5431 268.0351  2.13102501 24308
COSMOS 2529 (757)       
1 43687U 18086A   21213.34702036  .00000053  00000-0  00000+0 0  9992
2 43687  64.4326 253.1124 0011537 264.3076  98.4731  2.13102159 21344
COSMOS 2534 (758)       
1 44299U 19030A   21213.53565418  .00000056  00000-0  00000+0 0  9997
2 44299  64.5045 252.9628 0014040 282.3459 359.9605  2.13102026 16988
COSMOS 2544 (759)       
1 44850U 19088A   21213.32652890 -.00000023  00000-0  00000+0 0  9996
2 44850  64.8915 133.4247 0012919 264.7816 202.5392  2.13102291 12755
COSMOS 2545 (760)       
1 45358U 20018A   21213.19476601 -.00000058  00000-0  00000+0 0  9992
2 45358  64.9100  14.3914 0006921 237.9034 338.2869  2.13102675 10709
